     2.100          NAVIGATION                              RINEX VERSION / TYPE
fic2rin                                 10/13/2012 01:00:26 PGM / RUN BY / DATE
                                                            END OF HEADER
30 12 10 12 16  0  0.0 -.368050765246D-03  .161435309565D-10  .000000000000D+00
     .100000000000D+02  .758125000000D+02  .468912389226D-08  .304353232725D+01
     .371411442757D-05  .110831644852D-01  .656768679619D-05  .515372338867D+04
     .489600000000D+06  .208616256714D-06  .473835811403D+00  .558793544769D-08
     .961607175622D+00  .250718750000D+03  .161337178965D+01 -.810533761985D-08
     .481805783431D-09  .100000000000D+01  .170900000000D+04  .000000000000D+00
     .685000000000D+01  .000000000000D+00 -.419095158577D-08  .100000000000D+02
     .482406000000D+06  .400000000000D+01
31 12 10 12 16  0  0.0  .280234962702D-03  .227373675443D-11  .000000000000D+00
     .109000000000D+03 -.110937500000D+02  .375694220601D-08  .361487537224D+00
    -.553205609322D-06  .788674748037D-02  .120382755995D-04  .515374925613D+04
     .489600000000D+06 -.111758708954D-07 -.451416174907D+00 -.128522515297D-06
     .981099349195D+00  .156406250000D+03 -.856415499612D+00 -.781496838194D-08
     .417874549009D-10  .100000000000D+01  .170900000000D+04  .000000000000D+00
     .340000000000D+01  .000000000000D+00 -.135041773319D-07  .109000000000D+03
     .482406000000D+06  .400000000000D+01
32 12 10 12 16  0  0.0 -.497451517731D-03 -.386535248253D-11  .000000000000D+00
     .107000000000D+03  .626875000000D+02  .511128433408D-08  .968250078885D+00
     .311620533466D-05  .118380300701D-01  .457838177681D-05  .515355247307D+04
     .489600000000D+06  .314787030220D-06 -.247994107742D+01  .745058059692D-08
     .950868388468D+00  .281500000000D+03 -.498898221113D+00 -.854535594838D-08
     .216437586923D-09  .100000000000D+01  .170900000000D+04  .000000000000D+00
     .240000000000D+01  .000000000000D+00 -.325962901115D-08  .107000000000D+03
     .482406000000D+06  .400000000000D+01
30 12 10 12 15 59 44.0 -.368027947843D-03  .179625203600D-10  .000000000000D+00
     .620000000000D+02  .758125000000D+02  .468912389226D-08  .304119909433D+01
     .371411442757D-05  .110831615748D-01  .656768679619D-05  .515372339058D+04
     .489584000000D+06  .208616256714D-06  .473835945992D+00  .558793544769D-08
     .961607156604D+00  .250718750000D+03  .161337134200D+01 -.810533761985D-08
     .481805783431D-09  .100000000000D+01  .170900000000D+04  .000000000000D+00
     .340000000000D+01  .000000000000D+00 -.419095158577D-08  .620000000000D+02
     .483936000000D+06  .400000000000D+01
10 12 10 12 15 59 44.0 -.549596734345D-04 -.125055521494D-11  .000000000000D+00
     .190000000000D+02  .749687500000D+02  .506199656676D-08 -.212609593689D+01
     .383518636227D-05  .117570888251D-01  .566057860851D-05  .515372387314D+04
     .489584000000D+06  .689178705215D-07 -.254810591356D+01 -.150874257088D-06
     .945179089817D+00  .262062500000D+03  .763169753701D+00 -.833606151614D-08
     .452161691492D-09  .100000000000D+01  .170900000000D+04  .000000000000D+00
     .240000000000D+01  .000000000000D+00 -.232830643654D-08  .190000000000D+02
     .484236000000D+06  .400000000000D+01
20 12 10 12 15 59 44.0  .703586265445D-04  .909494701773D-12  .000000000000D+00
     .700000000000D+01  .793750000000D+02  .552523014801D-08 -.117181527883D+01
     .407360494137D-05  .512018729933D-02  .579096376896D-05  .515361821747D+04
     .489584000000D+06  .316649675369D-07 -.261506671692D+01  .124797224998D-06
     .929600470802D+00  .251031250000D+03  .127089769484D+01 -.875643616929D-08
     .283940398686D-09  .100000000000D+01  .170900000000D+04  .000000000000D+00
     .240000000000D+01  .000000000000D+00 -.791624188423D-08  .700000000000D+01
     .484956000000D+06  .400000000000D+01
21 12 10 12 15 59 44.0 -.255433842540D-03 -.238742359215D-11  .000000000000D+00
     .500000000000D+01 -.625000000000D+00  .509664086698D-08 -.520653088617D+00
     .745058059692D-08  .193716906942D-01  .118277966976D-04  .515379476166D+04
     .489584000000D+06 -.558793544769D-07  .267256806083D+01  .301748514175D-06
     .931743615067D+00  .138375000000D+03 -.221122742042D+01 -.860035823944D-08
    -.177864551630D-09  .100000000000D+01  .170900000000D+04  .000000000000D+00
     .240000000000D+01  .000000000000D+00 -.111758708954D-07  .500000000000D+01
     .485706000000D+06  .400000000000D+01
26 12 10 12 15 59 44.0 -.248820986599D-03  .134150468512D-10  .000000000000D+00
     .140000000000D+02 -.700312500000D+02  .417945980556D-08  .183540634790D+01
    -.397861003876D-05  .208134269342D-01  .603497028351D-05  .515365917397D+04
     .489584000000D+06 -.763684511185D-07 -.143061848069D+01 -.489875674248D-06
     .981348201800D+00  .276968750000D+03  .120865779834D+01 -.808712257540D-08
    -.422874757288D-09  .100000000000D+01  .170900000000D+04  .000000000000D+00
     .240000000000D+01  .000000000000D+00 -.605359673500D-08  .140000000000D+02
     .487296000000D+06  .400000000000D+01
18 12 10 12 15 59 44.0  .219347886741D-03  .181898940355D-11  .000000000000D+00
     .900000000000D+01  .800937500000D+02  .534736559638D-08 -.165040181429D+01
     .417977571487D-05  .136250614887D-01  .549666583538D-05  .515373715591D+04
     .489584000000D+06  .314787030220D-06 -.256144975697D+01 -.167638063431D-07
     .928984983131D+00  .257062500000D+03 -.213921044887D+01 -.850178270480D-08
     .326799326789D-09  .100000000000D+01  .170900000000D+04  .000000000000D+00
     .240000000000D+01  .000000000000D+00 -.107102096081D-07  .900000000000D+01
     .488016000000D+06  .400000000000D+01
 5 12 10 12 15 59 44.0 -.358947087079D-03 -.284217094304D-11  .000000000000D+00
     .100000000000D+01  .785312500000D+02  .499877964781D-08 -.239104827498D+01
     .405870378017D-05  .297186931130D-02  .645592808723D-05  .515376327896D+04
     .489584000000D+06 -.223517417908D-07 -.256886399842D+01 -.447034835815D-07
     .950331545809D+00  .250750000000D+03  .227919021879D+00 -.842642242289D-08
     .381801617856D-09  .100000000000D+01  .170900000000D+04  .000000000000D+00
     .240000000000D+01  .000000000000D+00 -.102445483208D-07  .100000000000D+01
     .488976000000D+06  .400000000000D+01
 5 12 10 12 17 59 44.0 -.358967110515D-03 -.284217094304D-11  .000000000000D+00
     .200000000000D+01  .783125000000D+02  .502949521295D-08 -.134123924775D+01
     .405125319958D-05  .297210726421D-02  .607222318649D-05  .515376142311D+04
     .496784000000D+06  .204890966415D-07 -.256892457201D+01 -.894069671631D-07
     .950334249282D+00  .257781250000D+03  .228240128009D+00 -.843856578585D-08
     .353586156854D-09  .100000000000D+01  .170900000000D+04  .000000000000D+00
     .240000000000D+01  .000000000000D+00 -.102445483208D-07  .200000000000D+01
     .489606000000D+06  .400000000000D+01
10 12 10 12 17 59 44.0 -.549689866602D-04 -.125055521494D-11  .000000000000D+00
     .200000000000D+02  .743437500000D+02  .518307303865D-08 -.107593992012D+01
     .392273068428D-05  .117573250318D-01  .545382499695D-05  .515372387886D+04
     .496784000000D+06  .283122062683D-06 -.254816529926D+01  .134110450745D-06
     .945180883355D+00  .265687500000D+03  .763167696838D+00 -.859250076929D-08
     .260725145963D-09  .100000000000D+01  .170900000000D+04  .000000000000D+00
     .240000000000D+01  .000000000000D+00 -.232830643654D-08  .200000000000D+02
     .489606000000D+06  .400000000000D+01
18 12 10 12 17 59 44.0  .219360925257D-03  .181898940355D-11  .000000000000D+00
     .100000000000D+02  .813437500000D+02  .565166398592D-08 -.600339689072D+00
     .431574881077D-05  .136243801098D-01  .603869557381D-05  .515373452377D+04
     .496784000000D+06 -.856816768646D-07 -.256151220017D+01  .216066837311D-06
     .928985025555D+00  .247531250000D+03 -.213912309218D+01 -.897465954488D-08
     .265368196508D-09  .100000000000D+01  .170900000000D+04  .000000000000D+00
     .240000000000D+01  .000000000000D+00 -.107102096081D-07  .100000000000D+02
     .489606000000D+06  .400000000000D+01
20 12 10 12 17 59 44.0  .703656114638D-04  .909494701773D-12  .000000000000D+00
     .170000000000D+02  .852812500000D+02  .554951687394D-08 -.121517767166D+00
     .445730984211D-05  .512091082055D-02  .574253499508D-05  .515361977196D+04
     .496784000000D+06 -.204890966415D-07 -.261513010808D+01  .707805156708D-07
     .929602397465D+00  .251000000000D+03  .127082215267D+01 -.880072372833D-08
     .290369237901D-09  .100000000000D+01  .170900000000D+04  .000000000000D+00
     .240000000000D+01  .000000000000D+00 -.791624188423D-08  .170000000000D+02
     .489606000000D+06  .400000000000D+01
21 12 10 12 17 59 44.0 -.255451072007D-03 -.238742359215D-11  .000000000000D+00
     .600000000000D+01 -.105000000000D+02  .519593071708D-08  .529424190974D+00
    -.234693288803D-06  .193706803257D-01  .123474746943D-04  .515379281616D+04
     .496784000000D+06 -.195577740669D-06  .267250626717D+01  .171363353729D-06
     .931742228221D+00  .130718750000D+03 -.221119189345D+01 -.859785813530D-08
    -.249653256203D-09  .100000000000D+01  .170900000000D+04  .000000000000D+00
     .240000000000D+01  .000000000000D+00 -.111758708954D-07  .600000000000D+01
     .489606000000D+06  .400000000000D+01
26 12 10 12 17 59 44.0 -.248724594712D-03  .134150468512D-10  .000000000000D+00
     .460000000000D+02 -.743437500000D+02  .414017245480D-08  .288563646147D+01
    -.379793345928D-05  .208140681498D-01  .604987144470D-05  .515365719795D+04
     .496784000000D+06  .195577740669D-06 -.143067428663D+01 -.149011611938D-06
     .981346336580D+00  .269812500000D+03  .120861511185D+01 -.773139347214D-08
    -.513235664040D-09  .100000000000D+01  .170900000000D+04  .000000000000D+00
     .240000000000D+01  .000000000000D+00 -.605359673500D-08  .460000000000D+02
     .489606000000D+06  .400000000000D+01
